NORAD_CAT_ID,OBJECT_NAME,OBJECT_TYPE,EPOCH,MEAN_MOTION,ECCENTRICITY,INCLINATION,RA_OF_ASC_NODE,ARG_OF_PERICENTER,MEAN_ANOMALY,BSTAR,MEAN_MOTION_DOT,MEAN_MOTION_DDOT,TLE_LINE0,TLE_LINE1,TLE_LINE2,SEMIMAJOR_AXIS,PERIOD,APOGEE,PERIGEE,DECAYED
53172.0,STARLINK-4299,PAYLOAD,2022-08-21 22:00:00,15.73135184,0.0003094,53.2143,231.9918,8.2041,129.1254,0.00045849,0.00064049,0.0,0 STARLINK-4299,1 53172U 22083AS  22233.91667824  .00064049  00000-0  45849-3 0  9994,2 53172  53.2143 231.9918 0003094   8.2041 129.1254 15.73135184  6213,6728.08,91.537,352.027,347.86300000000006,0.0
53172.0,STARLINK-4299,PAYLOAD,2022-08-22 12:00:00,15.73178946,0.0003423,53.2144,229.1075,8.222000000000001,194.6544,0.00043947,0.00061466,0.0,0 STARLINK-4299,1 53172U 22083AS  22234.50001157  .00061466  00000-0  43947-3 0  9998,2 53172  53.2144 229.1075 0003423   8.2220 194.6544 15.73178946  6304,6727.955,91.534,352.12300000000016,347.517,0.0
53172.0,STARLINK-4299,PAYLOAD,2022-08-22 22:00:00,15.73205724,0.0003197,53.2146,227.0434,10.6422,33.3973,0.00043211,0.00060487,0.0,0 STARLINK-4299,1 53172U 22083AS  22234.91667824  .00060487  00000-0  43211-3 0  9998,2 53172  53.2146 227.0434 0003197  10.6422  33.3973 15.73205724  1306,6727.879,91.533,351.895,347.593,0.0
53172.0,STARLINK-4299,PAYLOAD,2022-08-23 06:00:00,15.73232464,0.0003416999999999,53.2142,225.3957,9.2671,123.7298,-0.00046004,-0.00064805,0.0,0 STARLINK-4299,1 53172U 22083AS  22235.25001157 -.00064805  00000-0 -46004-3 0  9990,2 53172  53.2142 225.3957 0003417   9.2671 123.7298 15.73232464  6421,6727.803000000001,91.531,351.967,347.369,0.0
53172.0,STARLINK-4299,PAYLOAD,2022-08-23 12:00:00,15.73187604,0.0003469,53.2138,224.1587,8.2112,101.4942,0.00027436,0.00038046,0.0,0 STARLINK-4299,1 53172U 22083AS  22235.50001157  .00038046  00000-0  27436-3 0  9992,2 53172  53.2138 224.1587 0003469   8.2112 101.4942 15.73187604  6466,6727.931,91.534,352.129,347.462,0.0
53172.0,STARLINK-4299,PAYLOAD,2022-08-23 14:00:01,15.73214315,0.0003382,53.2137,223.7458,8.4015,213.5278,-6.2141e-05,-9.343e-05,0.0,0 STARLINK-4299,1 53172U 22083AS  22235.58334491 -.00009343  00000-0 -62141-4 0  9993,2 53172  53.2137 223.7458 0003382   8.4015 213.5278 15.73214315  1300,6727.854,91.532,351.995,347.444,0.0
53172.0,STARLINK-4299,PAYLOAD,2022-08-23 22:00:01,15.73203512,0.0003128,53.214,222.0945,10.2996,300.6411,0.00050901,0.00071449,0.0,0 STARLINK-4299,1 53172U 22083AS  22235.91668981  .00071449  00000-0  50901-3 0  9998,2 53172  53.2140 222.0945 0003128  10.2996 300.6411 15.73203512  1308,6727.885,91.533,351.855,347.646,0.0
53172.0,STARLINK-4299,PAYLOAD,2022-08-24 04:00:00,15.7320274,0.0003398999999999,53.2173,220.8491,6.2973,281.3339,1.9921e-05,2.174e-05,0.0,0 STARLINK-4299,1 53172U 22083AS  22236.16667824  .00002174  00000-0  19921-4 0  9998,2 53172  53.2173 220.8491 0003399   6.2973 281.3339 15.73202740  6565,6727.887,91.533,352.039,347.466,0.0
53172.0,STARLINK-4299,PAYLOAD,2022-08-24 14:00:01,15.73292237,0.0003362,53.2142,218.7968,8.2702,120.5398,-0.0007946,-0.00111158,0.0,0 STARLINK-4299,1 53172U 22083AS  22236.58334491 -.00111158  00000-0 -79460-3 0  9993,2 53172  53.2142 218.7968 0003362   8.2702 120.5398 15.73292237  6635,6727.632,91.528,351.759,347.235,0.0
53172.0,STARLINK-4299,PAYLOAD,2022-08-24 22:00:00,15.73218277,0.0003129999999999,53.2144,217.1457,8.2914,209.5083,0.0002213,0.00030579,0.0,0 STARLINK-4299,1 53172U 22083AS  22236.91667824  .00030579  00000-0  22130-3 0  9996,2 53172  53.2144 217.1457 0003130   8.2914 209.5083 15.73218277  6687,6727.843000000003,91.532,351.814,347.602,0.0
53172.0,STARLINK-4299,PAYLOAD,2022-08-25 06:00:02,15.73216655,0.0003395,53.2141,215.498,7.9023,298.9325,-0.00030574,-0.00043357,0.0,0 STARLINK-4299,1 53172U 22083AS  22237.25002315 -.00043357  00000-0 -30574-3 0  9993,2 53172  53.2141 215.4980 0003395   7.9023 298.9325 15.73216655  6731,6727.848000000001,91.532,351.997,347.42900000000014,0.0
53172.0,STARLINK-4299,PAYLOAD,2022-08-25 12:00:00,15.73204637,0.0003208,53.2169,214.2515,6.2129,277.1533,6.7841e-06,3.29e-06,0.0,0 STARLINK-4299,1 53172U 22083AS  22237.50001157  .00000329  00000-0  67841-5 0  9993,2 53172  53.2169 214.2515 0003208   6.2129 277.1533 15.73204637  6775,6727.882,91.533,351.905,347.589,0.0
53172.0,STARLINK-4299,PAYLOAD,2022-08-25 14:00:01,15.73204698,0.0003179,53.2172,213.8379,6.1297,29.4716,-3.5816e-06,-1.126e-05,0.0,0 STARLINK-4299,1 53172U 22083AS  22237.58334491 -.00001126  00000-0 -35816-5 0  9996,2 53172  53.2172 213.8379 0003179   6.1297  29.4716 15.73204698  1306,6727.882,91.533,351.886,347.608,0.0
53172.0,STARLINK-4299,PAYLOAD,2022-08-25 18:00:00,15.73182776,0.0003154999999999,53.214,213.022,6.5632,253.6015,0.00043742,0.00061182,0.0,0 STARLINK-4299,1 53172U 22083AS  22237.75001157  .00061182  00000-0  43742-3 0  9996,2 53172  53.2140 213.0220 0003155   6.5632 253.6015 15.73182776  6815,6727.944,91.534,351.932,347.68699999999984,0.0
53172.0,STARLINK-4299,PAYLOAD,2022-08-25 22:00:00,15.73203146,0.0003045,53.2144,212.195,8.0684,116.5571,0.00044884,0.00062863,0.0,0 STARLINK-4299,1 53172U 22083AS  22237.91667824  .00062863  00000-0  44884-3 0  9998,2 53172  53.2144 212.1950 0003045   8.0684 116.5571 15.73203146  1309,6727.886,91.533,351.8,347.70300000000015,0.0
53172.0,STARLINK-4299,PAYLOAD,2022-08-26 06:00:00,15.73231277,0.0003357,53.2144,210.5494,6.2401,207.3345,-0.00049127,-0.00069122,0.0,0 STARLINK-4299,1 53172U 22083AS  22238.25001157 -.00069122  00000-0 -49127-3 0  9999,2 53172  53.2144 210.5494 0003357   6.2401 207.3345 15.73231277  6890,6727.806,91.531,351.93,347.412,0.0
53172.0,STARLINK-4299,PAYLOAD,2022-08-26 14:00:01,15.73209053,0.0003288,53.2146,208.8988,4.7341,297.8462,-6.481e-05,-9.715e-05,0.0,0 STARLINK-4299,1 53172U 22083AS  22238.58335648 -.00009715  00000-0 -64810-4 0  9999,2 53172  53.2146 208.8988 0003288   4.7341 297.8462 15.73209053  1301,6727.869000000002,91.533,351.946,347.522,0.0
53172.0,STARLINK-4299,PAYLOAD,2022-08-26 22:00:00,15.73235494,0.0003202,53.215,207.2482,9.0914,22.3507,-0.00029881,-0.00042424,0.0,0 STARLINK-4299,1 53172U 22083AS  22238.91667824 -.00042424  00000-0 -29881-3 0  9992,2 53172  53.2150 207.2482 0003202   9.0914  22.3507 15.73235494  1307,6727.794,91.531,351.81300000000016,347.505,0.0
53172.0,STARLINK-4299,PAYLOAD,2022-08-27 14:00:01,15.73218941,0.0003322,53.2144,203.95,12.6636,196.6533,-4.161100000000001e-05,-6.466e-05,0.0,0 STARLINK-4299,1 53172U 22083AS  22239.58334491 -.00006466  00000-0 -41611-4 0  9999,2 53172  53.2144 203.9500 0003322  12.6636 196.6533 15.73218941  1300,6727.840999999999,91.532,351.941,347.471,0.0
53172.0,STARLINK-4299,PAYLOAD,2022-08-27 22:00:00,15.73247147,0.0003089,53.2149,202.2996,12.8631,285.3908,-0.00048202,-0.00067883,0.0,0 STARLINK-4299,1 53172U 22083AS  22239.91667824 -.00067883  00000-0 -48202-3 0  9997,2 53172  53.2149 202.2996 0003089  12.8631 285.3908 15.73247147  1305,6727.761,91.53,351.704,347.548,0.0
53172.0,STARLINK-4299,PAYLOAD,2022-08-28 14:00:01,15.73233434,0.0003221,53.2154,199.0012,7.149,109.0182,-0.00052951,-0.00074412,0.0,0 STARLINK-4299,1 53172U 22083AS  22240.58334491 -.00074412  00000-0 -52951-3 0  9995,2 53172  53.2154 199.0012 0003221   7.1490 109.0182 15.73233434  7262,6727.8,91.531,351.832,347.49800000000016,0.0
53172.0,STARLINK-4299,PAYLOAD,2022-08-28 22:00:00,15.73221283,0.0003058999999999,53.2157,197.3511,7.8354,197.2524,-0.0003198999999999,-0.0004533,0.0,0 STARLINK-4299,1 53172U 22083AS  22240.91667824 -.00045330  00000-0 -31990-3 0  9998,2 53172  53.2157 197.3511 0003059   7.8354 197.2524 15.73221283  1302,6727.834,91.532,351.7580000000001,347.641,0.0
53172.0,STARLINK-4299,PAYLOAD,2022-08-29 04:00:00,15.73169121,0.0003357,53.2153,196.1155,6.807,174.9913,-5.2939e-05,-8.038e-05,0.0,0 STARLINK-4299,1 53172U 22083AS  22241.16667824 -.00008038  00000-0 -52939-4 0  9997,2 53172  53.2153 196.1155 0003357   6.8070 174.9913 15.73169121  7351,6727.983,91.535,352.107,347.59,0.0
53172.0,STARLINK-4299,PAYLOAD,2022-08-29 14:00:01,15.73173136,0.0003166,53.2151,194.0527,8.8471,14.0621,-0.00035715,-0.00050404,0.0,0 STARLINK-4299,1 53172U 22083AS  22241.58334491 -.00050404  00000-0 -35715-3 0  9990,2 53172  53.2151 194.0527 0003166   8.8471  14.0621 15.73173136  1304,6727.972,91.535,351.967,347.707,0.0
53172.0,STARLINK-4299,PAYLOAD,2022-08-29 22:00:00,15.73161743,0.0003068,53.2154,192.403,12.649,99.1332,0.00033006,0.00045886,0.0,0 STARLINK-4299,1 53172U 22083AS  22241.91667824  .00045886  00000-0  33006-3 0  9993,2 53172  53.2154 192.4030 0003068  12.6490  99.1332 15.73161743  1307,6728.004,91.535,351.93300000000005,347.805,0.0
53172.0,STARLINK-4299,PAYLOAD,2022-08-30 06:00:00,15.73161807,0.0003356,53.2156,190.7556,11.7898,188.8815,0.00058232,0.00081786,0.0,0 STARLINK-4299,1 53172U 22083AS  22242.25001157  .00081786  00000-0  58232-3 0  9999,2 53172  53.2156 190.7556 0003356  11.7898 188.8815 15.73161807  7528,6728.004,91.535,352.12699999999984,347.611,0.0
53172.0,STARLINK-4299,PAYLOAD,2022-08-30 14:00:01,15.73231035,0.0003179,53.2158,189.1046,11.0382,278.525,-0.00036621,-0.00051786,0.0,0 STARLINK-4299,1 53172U 22083AS  22242.58334491 -.00051786  00000-0 -36621-3 0  9992,2 53172  53.2158 189.1046 0003179  11.0382 278.5250 15.73231035  7576,6727.807,91.531,351.81,347.533,0.0
53172.0,STARLINK-4299,PAYLOAD,2022-08-30 22:00:00,15.73191732,0.0003114,53.2159,187.4547,11.5305,6.9783,-3.1116e-05,-4.987e-05,0.0,0 STARLINK-4299,1 53172U 22083AS  22242.91667824 -.00004987  00000-0 -31116-4 0  9994,2 53172  53.2159 187.4547 0003114  11.5305   6.9783 15.73191732  1301,6727.919,91.534,351.879,347.689,0.0
53172.0,STARLINK-4299,PAYLOAD,2022-08-31 14:00:01,15.73260011,0.0003115,53.2153,184.1559,9.3661,187.0103,-0.00048189,-0.00067903,0.0,0 STARLINK-4299,1 53172U 22083AS  22243.58334491 -.00067903  00000-0 -48189-3 0  9993,2 53172  53.2153 184.1559 0003115   9.3661 187.0103 15.73260011  1307,6727.724,91.53,351.685,347.49300000000005,0.0
